KUIPER-00176            
1 65788U 25217AC  25359.83335647 -.00000361  00000+0 -16005-4 0  9991
2 65788  51.9006   9.7983 0002059  34.2696  60.2764 14.83413433  2099
KUIPER-00101            
1 65947U 25228A   25359.83335647  .00024502  00000+0  30997-2 0  9995
2 65947  51.8990 327.2123 0000576 185.5519 243.5207 14.81679365  5791
KUIPER-00113            
1 65948U 25228B   25359.83335647  .00009969  00000+0  96055-3 0  9994
2 65948  51.8951 322.8793 0006111  78.7501 192.1144 14.93442163  5491
KUIPER-00117            
1 65949U 25228C   25359.83335647  .00028260  00000+0  33660-2 0  9992
2 65949  51.8990 324.8724 0011260  73.1257 269.6903 14.84073721  2916
KUIPER-00121            
1 65950U 25228D   25359.83335647  .00009218  00000+0  69572-3 0  9998
2 65950  51.8898 320.5433 0005610  95.1232  25.8773 15.03042936  1668
KUIPER-00122            
1 65951U 25228E   25359.30805109  .00048766  00000+0  64979-2 0  9992
2 65951  51.9023 331.9891 0000526 117.6357 242.4658 14.79157732 12184
KUIPER-00123            
1 65952U 25228F   25359.13946781  .00070142  00000+0  92633-2 0  9997
2 65952  51.8998 332.7639 0000613  98.9393 261.1639 14.79340687 12159
KUIPER-00124            
1 65953U 25228G   25359.83335647 -.00012982  00000+0 -14429-2 0  9995
2 65953  51.8984 322.3292 0005443  70.6977 266.9563 14.86107630  5435
